{"type": "FeatureCollection", "features": [ {"type": "Feature", "properties": {"norad_id": 61183, "name": "GSAT0226 (GALILEO 31)", "group": "galileo", "lat": -28.257273388263336, "lon": 68.15723445884622, "alt_km": 23226.855233335835, "timestamp": "2025-12-19T22:41:52.654796+00:00", "meta": {"OBJECT_NAME": "GSAT0226 (GALILEO 31)", "OBJECT_ID": "2024-167B", "EPOCH": "2025-12-19T08:05:33.318816", "MEAN_MOTION": 1.70473764, "ECCENTRICITY": 0.0001078, "INCLINATION": 55.2375, "RA_OF_ASC_NODE": 226.2553, "ARG_OF_PERICENTER": 106.8002, "MEAN_ANOMALY": 94.9592, "EPHEMERIS_TYPE": 0, "CLASSIFICATION_TYPE": "U", "NORAD_CAT_ID": 61183, "ELEMENT_SET_NO": 999, "REV_AT_EPOCH": 778, "BSTAR": 0, "MEAN_MOTION_DOT": 6.7e-07, "MEAN_MOTION_DDOT": 0}, "tle": {"line1": "1 61183U 24167B   25353.33719119  .00000067  00000+0  00000+0 0  9992", "line2": "2 61183  55.2375 226.2553 0001078 106.8002  94.9592  1.70473764  7785"}}, "geometry": {"type": "Point", "coordinates": [68.15723445884622, -28.257273388263336]}}, {"type": "Feature", "properties": {"norad_id": 67160, "name": "GALILEO A", "group": "galileo", "lat": 31.6097347730863, "lon": 133.4823635123767, "alt_km": 22963.614854910345, "timestamp": "2025-12-19T22:41:52.654808+00:00", "meta": {"OBJECT_NAME": "GALILEO A", "OBJECT_ID": "2025-302A", "EPOCH": "2025-12-18T03:30:19.484640", "MEAN_MOTION": 1.72906186, "ECCENTRICITY": 0.0008424, "INCLINATION": 54.2406, "RA_OF_ASC_NODE": 107.2544, "ARG_OF_PERICENTER": 237.6458, "MEAN_ANOMALY": 122.2316, "EPHEMERIS_TYPE": 0, "CLASSIFICATION_TYPE": "U", "NORAD_CAT_ID": 67160, "ELEMENT_SET_NO": 999, "REV_AT_EPOCH": 2, "BSTAR": 0, "MEAN_MOTION_DOT": -7e-08, "MEAN_MOTION_DDOT": 0}, "tle": {"line1": "1 67160U 25302A   25352.14605885 -.00000007  00000+0  00000+0 0  9992", "line2": "2 67160  54.2406 107.2544 0008424 237.6458 122.2316  1.72906186    28"}}, "geometry": {"type": "Point", "coordinates": [133.4823635123767, 31.6097347730863]}}, {"type": "Feature", "properties": {"norad_id": 67161, "name": "GALILEO B", "group": "galileo", "lat": 32.06180350576748, "lon": 133.97243133860678, "alt_km": 22943.66068475987, "timestamp": "2025-12-19T22:41:52.654820+00:00", "meta": {"OBJECT_NAME": "GALILEO B", "OBJECT_ID": "2025-302B", "EPOCH": "2025-12-19T07:14:53.290752", "MEAN_MOTION": 1.72972192, "ECCENTRICITY": 0.0004587, "INCLINATION": 54.2272, "RA_OF_ASC_NODE": 107.1916, "ARG_OF_PERICENTER": 255.0301, "MEAN_ANOMALY": 104.8802, "EPHEMERIS_TYPE": 0, "CLASSIFICATION_TYPE": "U", "NORAD_CAT_ID": 67161, "ELEMENT_SET_NO": 999, "REV_AT_EPOCH": 5, "BSTAR": 0, "MEAN_MOTION_DOT": -5e-08, "MEAN_MOTION_DDOT": 0}, "tle": {"line1": "1 67161U 25302B   25353.30200568 -.00000005  00000+0  00000+0 0  9999", "line2": "2 67161  54.2272 107.1916 0004587 255.0301 104.8802  1.72972192    58"}}, "geometry": {"type": "Point", "coordinates": [133.97243133860678, 32.06180350576748]}}]}